FLOCK 4G-5              
1 62663U 25009BG  26068.45638436  .00011278  00000+0  40688-3 0  9997
2 62663  97.4058 151.2478 0002094 314.5072  45.5996 15.28679529 63699
STARLINK-32944          
1 63022U 25032T   26068.15618337  .00037562  00000+0  13665-2 0  9996
2 63022  43.0004 339.4817 0002541 249.7055 110.3524 15.27603756 60537
