[{"OBJECT_NAME":"FLOCK 4G-5","OBJECT_ID":"2025-009BG","EPOCH":"2026-03-09T10:57:11.608704","MEAN_MOTION":15.28679529,"ECCENTRICITY":0.00020946,"INCLINATION":97.4058,"RA_OF_ASC_NODE":151.2478,"ARG_OF_PERICENTER":314.5072,"MEAN_ANOMALY":45.5996,"EPHEMERIS_TYPE":0,"CLASSIFICATION_TYPE":"U","NORAD_CAT_ID":62663,"ELEMENT_SET_NO":999,"REV_AT_EPOCH":6369,"BSTAR":0.00040688068,"MEAN_MOTION_DOT":0.00011278,"MEAN_MOTION_DDOT":0},{"OBJECT_NAME":"STARLINK-32944","OBJECT_ID":"2025-032T","EPOCH":"2026-03-09T03:44:54.243168","MEAN_MOTION":15.27603756,"ECCENTRICITY":0.00025418,"INCLINATION":43.0004,"RA_OF_ASC_NODE":339.4817,"ARG_OF_PERICENTER":249.7055,"MEAN_ANOMALY":110.3524,"EPHEMERIS_TYPE":0,"CLASSIFICATION_TYPE":"U","NORAD_CAT_ID":63022,"ELEMENT_SET_NO":999,"REV_AT_EPOCH":6053,"BSTAR":0.001366495,"MEAN_MOTION_DOT":0.00037562,"MEAN_MOTION_DDOT":0}]
